{
    "links": {
        "self": "http://www.neowsapp.com/rest/v1/neo/3684728?api_key=iIulBulltgU6a56xZRHN4H3l9WmuAYTsLGpBGhQ2"
    },
    "id": "3684728",
    "neo_reference_id": "3684728",
    "name": "(2014 QD365)",
    "designation": "2014 QD365",
    "nasa_jpl_url": "http://ssd.jpl.nasa.gov/sbdb.cgi?sstr=3684728",
    "absolute_magnitude_h": 24.1,
    "estimated_diameter": {
        "kilometers": {
            "estimated_diameter_min": 0.040230458,
            "estimated_diameter_max": 0.0899580388
        },
        "meters": {
            "estimated_diameter_min": 40.2304579834,
            "estimated_diameter_max": 89.9580388169
        },
        "miles": {
            "estimated_diameter_min": 0.0249980399,
            "estimated_diameter_max": 0.0558973165
        },
        "feet": {
            "estimated_diameter_min": 131.9896957704,
            "estimated_diameter_max": 295.1379320721
        }
    },
    "is_potentially_hazardous_asteroid": false,
    "close_approach_data": [
        {
            "close_approach_date": "2014-08-30",
            "close_approach_date_full": "2014-Aug-30 11:21",
            "epoch_date_close_approach": 1409397660000,
            "relative_velocity": {
                "kilometers_per_second": "4.9012302725",
                "kilometers_per_hour": "17644.4289809748",
                "miles_per_hour": "10963.5619965396"
            },
            "miss_distance": {
                "astronomical": "0.1484803598",
                "lunar": "57.7588599622",
                "kilometers": "22212345.562913626",
                "miles": "13802111.5203789988"
            },
            "orbiting_body": "Earth"
        }
    ],
    "orbital_data": {
        "orbit_id": "3",
        "orbit_determination_date": "2017-04-06 08:39:01",
        "first_observation_date": "2014-08-22",
        "last_observation_date": "2014-08-30",
        "data_arc_in_days": 8,
        "observations_used": 9,
        "orbit_uncertainty": "8",
        "minimum_orbit_intersection": ".125151",
        "jupiter_tisserand_invariant": "4.076",
        "epoch_osculation": "2456894.5",
        "eccentricity": ".3522410169561886",
        "semi_major_axis": "1.731354438355803",
        "inclination": "7.505768052772135",
        "ascending_node_longitude": "136.8964075449715",
        "orbital_period": "832.1036054483208",
        "perihelion_distance": "1.121500390277744",
        "perihelion_argument": "209.7878047260726",
        "aphelion_distance": "2.341208486433862",
        "perihelion_time": "2456914.469947481318",
        "mean_anomaly": "351.3602332135058",
        "mean_motion": ".432638433054306",
        "equinox": "J2000",
        "orbit_class": {
            "orbit_class_type": "AMO",
            "orbit_class_description": "Near-Earth asteroid orbits similar to that of 1221 Amor",
            "orbit_class_range": "1.017 AU < q (perihelion) < 1.3 AU"
        }
    },
    "is_sentry_object": false
}